STARLINK-11254 [DTC]    
1 60731U 24152M   24252.25001157 -.00491575  00000+0 -18953-2 0  9997
2 60731  53.1515 295.5528 0000650 104.7916 303.7506 15.87704560  2856
STARLINK-11266 [DTC]    
1 60732U 24152N   24252.50001157 -.00423303  00000+0 -16113-2 0  9996
2 60732  53.1512 294.2710 0000667  77.5922 329.1862 15.87804192  2898
STARLINK-32253          
1 60733U 24152P   24252.58334491 -.00757925  00000+0 -40892-2 0  9996
2 60733  53.1513 294.0315 0000636  84.7350 350.2248 15.81373784  2974
STARLINK-32179          
1 60734U 24152Q   24252.58334491 -.00747382  00000+0 -40251-2 0  9992
2 60734  53.1515 294.0377 0000734  76.7077 355.2887 15.81385004  2928
STARLINK-32272          
1 60735U 24152R   24252.25001157 -.00838184  00000+0 -44336-2 0  9996
2 60735  53.1518 295.6972 0000837 104.4934 233.8805 15.81995396  2927
STARLINK-32280          
1 60736U 24152S   24252.25001157 -.00849516  00000+0 -45012-2 0  9990
2 60736  53.1519 295.6910 0000842  76.2572 265.2054 15.81987552  2921
STARLINK-32289          
1 60737U 24152T   24252.58334491 -.00788878  00000+0 -42799-2 0  9999
2 60737  53.1509 294.0128 0000669  82.9516   0.8774 15.81332393  3014
STARLINK-32304          
1 60738U 24152U   24252.58334491 -.00800086  00000+0 -43495-2 0  9990
2 60738  53.1512 294.0066 0000877  61.4633  25.3512 15.81315665  3018
STARLINK-32235          
1 60739U 24152V   24252.50001157 -.00838467  00000+0 -45608-2 0  9995
2 60739  53.1513 294.4168 0001075  86.1498 249.6438 15.81398320  2950
STARLINK-32315          
1 60740U 24152W   24252.25001157 -.00902949  00000+0 -48323-2 0  9993
2 60740  53.1518 295.6629 0000778  94.1177 260.7912 15.81910568  2869
2024-153A               
1 60745U 24153A   24251.08397452  .00021171  00000+0  13174-2 0  9998
2 60745  97.6166   8.5633 0015862 254.0738 105.8743 15.09525899  1344
2024-153B               
1 60746U 24153B   24251.61283640  .00028705  00000+0  17682-2 0  9999
2 60746  97.6170   9.0923 0015808 255.7375 104.2098 15.09830179  1428
2024-153C               
1 60747U 24153C   24251.61273995  .00031507  00000+0  19376-2 0  9998
2 60747  97.6167   9.0921 0016514 255.2473 104.6926 15.09858698  1422
2024-153D               
1 60748U 24153D   24251.61238431  .00033024  00000+0  20263-2 0  9998
2 60748  97.6202   9.0972 0015916 256.2794 103.6663 15.09938990  1422
2024-153E               
1 60749U 24153E   24251.61215924  .00033177  00000+0  20338-2 0  9993
2 60749  97.6168   9.0931 0015358 257.3956 102.5556 15.09978481  1429
2024-153F               
1 60750U 24153F   24250.75010712  .00031155  00000+0  19079-2 0  9991
2 60750  97.6133   8.2335 0016079 261.2678  98.6730 15.10021165  1292
2024-153G               
1 60751U 24153G   24251.04658805  .00121217  58492-5  11264-2 0  9997
2 60751  97.6416   9.1350 0171487 338.2450  21.1576 15.50903147  1373
2024-153H               
1 60752U 24153H   24242.34728060 -.00000069  00000+0  00000+0 0  9993
2 60752  97.3719   0.5652 0013970  33.0832  33.4934 15.22204973    28
STARLINK-11242 [DTC]    
1 60903U 24154A   24251.91668981 -.00988986  00000+0 -52981-2 0  9992
2 60903  53.1533 314.3994 0000787  75.1717 228.8077 15.82108243  2441
STARLINK-11256 [DTC]    
1 60904U 24154B   24251.91668981 -.00986214  00000+0 -48868-2 0  9994
2 60904  53.1538 314.3778 0000491  70.1013 244.3021 15.83743186  2436
STARLINK-11159 [DTC]    
1 60905U 24154C   24252.50001157 -.00935441  00000+0 -45503-2 0  9996
2 60905  53.1532 311.4235 0001159  54.0010 357.5749 15.83995695  2536
STARLINK-11264 [DTC]    
1 60906U 24154D   24251.91668981 -.00493638  00000+0 -21538-2 0  9994
2 60906  53.1535 314.3457 0000598  86.9831 242.9409 15.85193074  2442
STARLINK-11226 [DTC]    
1 60907U 24154E   24251.91668981 -.00469125  00000+0 -19901-2 0  9990
2 60907  53.1537 314.3321 0000423  74.8373 261.8436 15.85714060  2443
STARLINK-11229 [DTC]    
1 60908U 24154F   24251.91668981 -.00435187  00000+0 -17987-2 0  9994
2 60908  53.1533 314.3206 0000325  80.9315 261.1121 15.86166821  2448
STARLINK-11265 [DTC]    
1 60909U 24154G   24252.25001157 -.00623837  00000+0 -25258-2 0  9990
2 60909  53.1532 312.5962 0001040  87.7084  18.4816 15.87020754  2494
STARLINK-11250 [DTC]    
1 60910U 24154H   24252.25001157 -.00588080  00000+0 -23131-2 0  9990
2 60910  53.1531 312.5833 0000986  82.7924  29.8295 15.87522428  2490
STARLINK-11190 [DTC]    
1 60911U 24154J   24252.25001157 -.00563524  00000+0 -21605-2 0  9991
2 60911  53.1537 312.5699 0000839  80.8814  38.1581 15.87980619  2492
STARLINK-11225 [DTC]    
1 60912U 24154K   24252.50001157 -.00509853  00000+0 -19316-2 0  9991
2 60912  53.1527 311.2932 0001099  52.9786  61.8114 15.88095064  2537
STARLINK-11273 [DTC]    
1 60913U 24154L   24252.50001157 -.00485536  00000+0 -18001-2 0  9993
2 60913  53.1528 311.2826 0001043  68.2544  51.6375 15.88471758  2536
STARLINK-11248 [DTC]    
1 60914U 24154M   24252.50001157 -.00467826  00000+0 -16990-2 0  9991
2 60914  53.1528 311.2705 0001138  52.6473  73.2560 15.88841307  2533
STARLINK-11271 [DTC]    
1 60915U 24154N   24252.50001157 -.00447951  00000+0 -15964-2 0  9999
2 60915  53.1527 311.2603 0001375  80.9990  49.8245 15.89168645  2538
STARLINK-32371          
1 60916U 24154P   24251.91668981 -.00887581  00000+0 -37359-2 0  9997
2 60916  53.1529 314.2307 0000556  98.7051 286.8704 15.86850411  2393
STARLINK-32369          
1 60917U 24154Q   24251.91668981 -.00914289  00000+0 -38291-2 0  9990
2 60917  53.1530 314.2202 0000692 100.9742 289.6750 15.87012837  2399
STARLINK-32317          
1 60918U 24154R   24251.91668981 -.00896994  00000+0 -37668-2 0  9990
2 60918  53.1530 314.2267 0000563  96.9171 290.7430 15.86919063  2392
STARLINK-32367          
1 60919U 24154S   24251.91668981 -.00939491  00000+0 -39166-2 0  9996
2 60919  53.1531 314.2105 0000534  76.7887 318.6386 15.87165928  2397
STARLINK-32345          
1 60920U 24154T   24251.91668981 -.00927128  00000+0 -38736-2 0  9994
2 60920  53.1531 314.2152 0000513  99.2368 293.9545 15.87092645  2399
STARLINK-32356          
1 60921U 24154U   24251.91668981 -.00973811  00000+0 -40397-2 0  9991
2 60921  53.1531 314.1981 0000572  80.2820 321.0327 15.87345486  2392
STARLINK-32274          
1 60922U 24154V   24251.91668981 -.00956387  00000+0 -39763-2 0  9996
2 60922  53.1531 314.2034 0000301  91.6004 307.0949 15.87261892  2395
STARLINK-32373          
1 60923U 24154W   24252.25001157 -.00984745  00000+0 -42185-2 0  9992
2 60923  53.1525 312.5076 0001107  86.5901  62.5099 15.86719491  2447
STARLINK-11239 [DTC]    
1 60924U 24155A   24252.50001157 -.00813315  00000+0 -35840-2 0  9996
2 60924  53.1652 160.7036 0001166 126.7636 204.0652 15.85739213  2435
STARLINK-11245 [DTC]    
1 60925U 24155B   24251.91668981 -.00806391  00000+0 -32487-2 0  9995
2 60925  53.1655 163.6352 0001348 105.2575 139.9762 15.87537043  2233
STARLINK-11244 [DTC]    
1 60926U 24155C   24251.91668981 -.00717107  00000+0 -26965-2 0  9996
2 60926  53.1652 163.6081 0001150 120.2056 138.1886 15.88710890  2391
STARLINK-11243 [DTC]    
1 60927U 24155D   24251.91668981 -.00763759  00000+0 -29682-2 0  9990
2 60927  53.1649 163.6212 0001070 106.6395 145.1951 15.88161469  2246
STARLINK-11238 [DTC]    
1 60928U 24155E   24251.91668981 -.00704485  00000+0 -25769-2 0  9994
2 60928  53.1654 163.5948 0000953 109.8278 154.9062 15.89229649  2395
STARLINK-11240 [DTC]    
1 60929U 24155F   24251.91668981 -.00670708  00000+0 -23887-2 0  9994
2 60929  53.1653 163.5835 0000992 109.8693 160.2805 15.89679430  2239
STARLINK-11251 [DTC]    
1 60930U 24155G   24251.91668981 -.00647325  00000+0 -22508-2 0  9994
2 60930  53.1647 163.5727 0000985 106.9056 168.4113 15.90097179  2189
STARLINK-11204 [DTC]    
1 60931U 24155H   24251.91668981 -.00631361  00000+0 -21463-2 0  9997
2 60931  53.1650 163.5613 0000876 112.5805 168.2729 15.90502623  2346
STARLINK-11246 [DTC]    
1 60932U 24155J   24251.91668981 -.00644537  13778-3 -20047-2 0  9994
2 60932  53.1648 163.5531 0000900 111.6896 173.0597 15.90835367  2184
STARLINK-11207 [DTC]    
1 60933U 24155K   24251.91668981 -.00632506  13375-3 -19310-2 0  9992
2 60933  53.1646 163.5428 0000790 113.4783 176.3693 15.91194629  2295
STARLINK-11237 [DTC]    
1 60934U 24155L   24252.24216434 -.00057742  12063-4 -16569-3 0  9993
2 60934  53.1661 161.8772 0001565  93.5246 266.5961 15.91259980  2336
STARLINK-11253 [DTC]    
1 60935U 24155M   24252.16668981 -.00510777  92620-4 -15323-2 0  9998
2 60935  53.1651 162.2536 0000474  91.2401 200.4115 15.91498539  2372
STARLINK-11241 [DTC]    
1 60936U 24155N   24251.91668981 -.00585554  11790-3 -17032-2 0  9993
2 60936  53.1645 163.5159 0000939  91.3882 211.3894 15.92116531  2343
STARLINK-32259          
1 60937U 24155P   24251.91668981 -.00936004  26985-3 -28430-2 0  9990
2 60937  53.1639 163.4743 0000692 127.2285 194.9744 15.91360604  2348
STARLINK-32262          
1 60938U 24155Q   24252.50001157 -.00798734  00000+0 -28244-2 0  9998
2 60938  53.1639 160.5216 0000285 106.4526 311.6452 15.90106369  2481
STARLINK-32258          
1 60939U 24155R   24252.50001157 -.00783728  00000+0 -27813-2 0  9997
2 60939  53.1640 160.5283 0000416  96.0453 318.9000 15.90002333  2381
STARLINK-32251          
1 60940U 24155S   24252.50001157 -.00810636  00000+0 -28513-2 0  9996
2 60940  53.1640 160.5134 0000519 121.9319 300.1693 15.90234352  2335
STARLINK-32224          
1 60941U 24155T   24252.50001157 -.00856064  00000+0 -29677-2 0  9994
2 60941  53.1641 160.4887 0000475  85.4809 348.6007 15.90616419  2389
STARLINK-32184          
1 60942U 24155U   24251.91668981 -.00912023  25698-3 -27992-2 0  9993
2 60942  53.1637 163.4854 0000711 126.0616 190.9686 15.91153367  2293
